CARTOSAT-2D
1 41948U 17008A   18094.14199639  .00000406  00000-0  22482-4 0  9998
2 41948  97.4529 156.8689 0005209 287.3451  72.7214 15.19247531 62697
